{
    "links": {
        "self": "http://www.neowsapp.com/rest/v1/neo/3757878?api_key=iIulBulltgU6a56xZRHN4H3l9WmuAYTsLGpBGhQ2"
    },
    "id": "3757878",
    "neo_reference_id": "3757878",
    "name": "(2016 QB11)",
    "designation": "2016 QB11",
    "nasa_jpl_url": "http://ssd.jpl.nasa.gov/sbdb.cgi?sstr=3757878",
    "absolute_magnitude_h": 25.8,
    "estimated_diameter": {
        "kilometers": {
            "estimated_diameter_min": 0.0183888672,
            "estimated_diameter_max": 0.0411187571
        },
        "meters": {
            "estimated_diameter_min": 18.388867207,
            "estimated_diameter_max": 41.1187571041
        },
        "miles": {
            "estimated_diameter_min": 0.0114263088,
            "estimated_diameter_max": 0.0255500032
        },
        "feet": {
            "estimated_diameter_min": 60.3309310875,
            "estimated_diameter_max": 134.9040630575
        }
    },
    "is_potentially_hazardous_asteroid": false,
    "close_approach_data": [
        {
            "close_approach_date": "1947-03-15",
            "close_approach_date_full": "1947-Mar-15 21:55",
            "epoch_date_close_approach": -719460300000,
            "relative_velocity": {
                "kilometers_per_second": "20.3374186227",
                "kilometers_per_hour": "73214.7070417398",
                "miles_per_hour": "45492.7717171299"
            },
            "miss_distance": {
                "astronomical": "0.0873638479",
                "lunar": "33.9845368331",
                "kilometers": "13069445.560843973",
                "miles": "8120976.8968059074"
            },
            "orbiting_body": "Earth"
        },
        {
            "close_approach_date": "2016-08-31",
            "close_approach_date_full": "2016-Aug-31 20:57",
            "epoch_date_close_approach": 1472677020000,
            "relative_velocity": {
                "kilometers_per_second": "22.6367089915",
                "kilometers_per_hour": "81492.1523694036",
                "miles_per_hour": "50636.0543430886"
            },
            "miss_distance": {
                "astronomical": "0.008863278",
                "lunar": "3.447815142",
                "kilometers": "1325927.51001786",
                "miles": "823893.150292068"
            },
            "orbiting_body": "Earth"
        },
        {
            "close_approach_date": "2016-09-01",
            "close_approach_date_full": "2016-Sep-01 02:24",
            "epoch_date_close_approach": 1472696640000,
            "relative_velocity": {
                "kilometers_per_second": "22.4813088488",
                "kilometers_per_hour": "80932.7118557956",
                "miles_per_hour": "50288.4397639525"
            },
            "miss_distance": {
                "astronomical": "0.0092515302",
                "lunar": "3.5988452478",
                "kilometers": "1384009.212160674",
                "miles": "859983.4464743412"
            },
            "orbiting_body": "Moon"
        }
    ],
    "orbital_data": {
        "orbit_id": "5",
        "orbit_determination_date": "2017-04-06 08:24:24",
        "first_observation_date": "2016-08-28",
        "last_observation_date": "2016-08-31",
        "data_arc_in_days": 3,
        "observations_used": 33,
        "orbit_uncertainty": "8",
        "minimum_orbit_intersection": ".00255567",
        "jupiter_tisserand_invariant": "3.577",
        "epoch_osculation": "2457629.5",
        "eccentricity": ".7362490788974592",
        "semi_major_axis": "1.882464816817273",
        "inclination": "2.603340988285556",
        "ascending_node_longitude": "155.0287159688356",
        "orbital_period": "943.3844836106373",
        "perihelion_distance": ".4965018293786816",
        "perihelion_argument": "284.619745947856",
        "aphelion_distance": "3.268427804255865",
        "perihelion_time": "2457680.103763826039",
        "mean_anomaly": "340.6893633572917",
        "mean_motion": ".3816047499765564",
        "equinox": "J2000",
        "orbit_class": {
            "orbit_class_type": "APO",
            "orbit_class_description": "Near-Earth asteroid orbits which cross the Earth’s orbit similar to that of 1862 Apollo",
            "orbit_class_range": "a (semi-major axis) > 1.0 AU; q (perihelion) < 1.017 AU"
        }
    },
    "is_sentry_object": false
}